{
  "norad_id": 46073,
  "name": "STARLINK-1542",
  "history": [
    {
      "epoch": "2026-03-28T18:49:23.011968Z",
      "apogee_km": 548.1238519441022,
      "perigee_km": 546.1998654151839,
      "latitude_deg": 6.427459349593268e-06,
      "longitude_deg": -97.64654983345031,
      "height_km": 547.9897795719039,
      "semi_major_axis_km": 6925.298858679643,
      "eccentricity": 0.00013891,
      "inclination_deg": 53.0553,
      "raan_deg": 10.8991,
      "arg_perigee_deg": 87.0478,
      "mean_anomaly_deg": 273.067,
      "mean_motion_rev_day": 15.06416216
    },
    {
      "epoch": "2026-03-29T01:11:31.777440Z",
      "apogee_km": 548.1083486907919,
      "perigee_km": 546.1803503630836,
      "latitude_deg": -1.210834017513117e-05,
      "longitude_deg": 165.36444373904882,
      "height_km": 547.9628545932345,
      "semi_major_axis_km": 6925.281349526937,
      "eccentricity": 0.0001392,
      "inclination_deg": 53.0541,
      "raan_deg": 9.7082,
      "arg_perigee_deg": 86.5009,
      "mean_anomaly_deg": 273.6139,
      "mean_motion_rev_day": 15.06421929
    },
    {
      "epoch": "2026-03-30T01:04:38.464896Z",
      "apogee_km": 548.1412955013984,
      "perigee_km": 546.2839167370375,
      "latitude_deg": 4.300655350059174e-05,
      "longitude_deg": 161.63789116015832,
      "height_km": 548.1318667838503,
      "semi_major_axis_km": 6925.349606119218,
      "eccentricity": 0.0001341,
      "inclination_deg": 53.0542,
      "raan_deg": 5.2404,
      "arg_perigee_deg": 92.5834,
      "mean_anomaly_deg": 267.5309,
      "mean_motion_rev_day": 15.06399658
    },
    {
      "epoch": "2026-03-30T01:04:38.465760Z",
      "apogee_km": 548.1412262479025,
      "perigee_km": 546.2839859905343,
      "latitude_deg": 4.3822580182599346e-05,
      "longitude_deg": 161.63788816052866,
      "height_km": 548.1318743255616,
      "semi_major_axis_km": 6925.349606119218,
      "eccentricity": 0.00013409,
      "inclination_deg": 53.0543,
      "raan_deg": 5.2404,
      "arg_perigee_deg": 92.5834,
      "mean_anomaly_deg": 267.5309,
      "mean_motion_rev_day": 15.06399658
    }
  ]
}